{"type":"FeatureCollection", "features": [
{"type":"Feature","geometry":{"type":"Polygon","coordinates":[[[-77.2395,38.66653],[-77.2339,38.66134],[-77.20349,38.6585],[-77.19327,38.65089],[-77.2149,38.63789],[-77.20197,38.61768],[-77.16891,38.62545],[-77.15809,38.63687],[-77.1302,38.63502],[-77.1359,38.64982],[-77.1325,38.67382],[-77.1059,38.69682],[-77.07995,38.70901],[-77.0532,38.70992],[-77.04149,38.72591],[-77.04208,38.74672],[-77.03901,38.79165],[-77.0392,38.83221],[-77.0317,38.85051],[-77.0406,38.87121],[-77.0491,38.87071],[-77.0673,38.89921],[-77.0937,38.90591],[-77.11976,38.93434],[-77.1466,38.96421],[-77.1796,38.96841],[-77.20252,38.94553],[-77.21023,38.93149],[-77.19624,38.92347],[-77.21737,38.91013],[-77.22121,38.88312],[-77.21793,38.83425],[-77.22213,38.82036],[-77.2036,38.7935],[-77.1794,38.7893],[-77.13539,38.79651],[-77.13607,38.78407],[-77.15889,38.75261],[-77.17391,38.72198],[-77.19045,38.7204],[-77.2067,38.68866],[-77.2395,38.66653]]]},"properties":{"CD119FP":"08","GEOID":"5108","NAMELSAD":"Congressional District 8"}},
{"type":"Feature","geometry":{"type":"MultiPolygon","coordinates":[[[[-76.40691,36.89751],[-76.40414,36.88504],[-76.44107,36.84255],[-76.45747,36.81484],[-76.46178,36.78257],[-76.44516,36.78743],[-76.4382,36.77882],[-76.42235,36.78752],[-76.39968,36.78739],[-76.38677,36.77883],[-76.34432,36.77007],[-76.34485,36.75852],[-76.29109,36.75766],[-76.25343,36.74256],[-76.24216,36.75999],[-76.22527,36.76287],[-76.20645,36.77705],[-76.22806,36.83287],[-76.19474,36.82997],[-76.17691,36.85697],[-76.19326,36.86525],[-76.19846,36.88664],[-76.18201,36.90667],[-76.19253,36.91804],[-76.17709,36.93007],[-76.22166,36.93955],[-76.26787,36.96449],[-76.29615,36.969],[-76.30047,36.95635],[-76.31587,36.95535],[-76.33021,36.94206],[-76.32602,36.90372],[-76.31566,36.88818],[-76.32703,36.87364],[-76.30781,36.86059],[-76.3418,36.86012],[-76.35127,36.87995],[-76.35453,36.92276],[-76.38587,36.92325],[-76.38757,36.89955],[-76.40691,36.89751]]],[[[-76.60744,37.16884],[-76.60437,37.16006],[-76.6255,37.12725],[-76.5795,37.09663],[-76.56715,37.08378],[-76.54314,37.08909],[-76.52656,37.07853],[-76.52627,37.06295],[-76.46447,37.02755],[-76.44823,37.00771],[-76.45212,36.99816],[-76.42525,36.96642],[-76.41099,36.963],[-76.39637,36.98235],[-76.37748,36.99698],[-76.34807,37.00675],[-76.34067,37.01525],[-76.30035,37.00885],[-76.29286,37.03515],[-76.27135,37.08757],[-76.2799,37.10123],[-76.29602,37.10976],[-76.34467,37.09684],[-76.36747,37.11304],[-76.40118,37.10556],[-76.40961,37.0919],[-76.4448,37.09467],[-76.4591,37.10098],[-76.50614,37.15409],[-76.51719,37.17875],[-76.52657,37.17707],[-76.56519,37.22054],[-76.5913,37.21321],[-76.58122,37.18251],[-76.60744,37.16884]]]]},"properties":{"CD119FP":"03","GEOID":"5103","NAMELSAD":"Congressional District 3"}},
{"type":"Feature","geometry":{"type":"Polygon","coordinates":[[[-77.40781,37.80333],[-77.4267,37.79738],[-77.44604,37.80333],[-77.47033,37.78821],[-77.47653,37.77706],[-77.50286,37.77484],[-77.51981,37.77866],[-77.53507,37.77466],[-77.55244,37.77823],[-77.56977,37.80273],[-77.58877,37.77861],[-77.61233,37.75986],[-77.64867,37.75674],[-77.65269,37.74519],[-77.64132,37.73128],[-77.63993,37.71588],[-77.63082,37.7057],[-77.6537,37.64433],[-77.65212,37.61704],[-77.64026,37.60277],[-77.62635,37.59881],[-77.61643,37.57755],[-77.63871,37.56674],[-77.6554,37.56399],[-77.66533,37.55455],[-77.79784,37.45896],[-77.7988,37.44489],[-77.809,37.42623],[-77.83316,37.4228],[-77.84873,37.41495],[-77.87549,37.41602],[-77.87181,37.39943],[-77.87823,37.38351],[-77.87756,37.36625],[-77.85284,37.35665],[-77.85054,37.3451],[-77.83735,37.33838],[-77.79861,37.33432],[-77.79625,37.32397],[-77.80901,37.31536],[-77.80675,37.30453],[-77.78486,37.29649],[-77.76943,37.28498],[-77.75862,37.26872],[-77.73802,37.27036],[-77.73552,37.28419],[-77.71744,37.28486],[-77.71621,37.29688],[-77.66747,37.29247],[-77.65061,37.26511],[-77.61335,37.27088],[-77.60051,37.25374],[-77.58398,37.2461],[-77.55702,37.25015],[-77.56894,37.28089],[-77.55808,37.32126],[-77.57593,37.31641],[-77.60203,37.33366],[-77.63044,37.33708],[-77.61863,37.35008],[-77.61359,37.36598],[-77.58954,37.38513],[-77.59497,37.39689],[-77.59128,37.41144],[-77.61659,37.41159],[-77.62384,37.42839],[-77.59384,37.43966],[-77.60036,37.45227],[-77.62188,37.46261],[-77.58397,37.46793],[-77.55469,37.50362],[-77.53722,37.51309],[-77.55247,37.54177],[-77.57858,37.53223],[-77.59277,37.53366],[-77.59546,37.55575],[-77.56014,37.55557],[-77.52983,37.55923],[-77.52586,37.56824],[-77.54747,37.57254],[-77.53148,37.59179],[-77.51149,37.59548],[-77.525,37.62069],[-77.54072,37.63284],[-77.53144,37.64923],[-77.51235,37.64395],[-77.50426,37.65914],[-77.48973,37.65947],[-77.47676,37.6457],[-77.46663,37.64759],[-77.45189,37.63615],[-77.43342,37.64505],[-77.40538,37.62603],[-77.40871,37.61466],[-77.39113,37.59809],[-77.36267,37.58868],[-77.30594,37.56101],[-77.26591,37.55186],[-77.24681,37.53931],[-77.23185,37.53964],[-77.19194,37.50124],[-77.16465,37.48471],[-77.16164,37.47652],[-77.12687,37.47158],[-77.11531,37.45277],[-77.09595,37.44028],[-77.07629,37.44129],[-77.05478,37.43187],[-77.02668,37.42901],[-77.02132,37.41601],[-77.00765,37.41375],[-76.98324,37.42027],[-76.96882,37.40651],[-76.94308,37.41039],[-76.90637,37.39261],[-76.91793,37.38426],[-76.8981,37.37515],[-76.91586,37.35262],[-76.90535,37.35064],[-76.88477,37.36857],[-76.87351,37.36342],[-76.87363,37.34256],[-76.88,37.30987],[-76.87168,37.2956],[-76.88156,37.28551],[-76.87519,37.2608],[-76.86952,37.24216],[-76.82218,37.24364],[-76.79354,37.23125],[-76.78053,37.20934],[-76.75777,37.19166],[-76.74304,37.19261],[-76.73151,37.21223],[-76.70262,37.21715],[-76.693,37.22368],[-76.64987,37.22091],[-76.62987,37.20674],[-76.60744,37.16884],[-76.58122,37.18251],[-76.5913,37.21321],[-76.56519,37.22054],[-76.52657,37.17707],[-76.51719,37.17875],[-76.50614,37.15409],[-76.4591,37.10098],[-76.4448,37.09467],[-76.40961,37.0919],[-76.40118,37.10556],[-76.36747,37.11304],[-76.34467,37.09684],[-76.29602,37.10976],[-76.29576,37.12326],[-76.31139,37.13749],[-76.3407,37.15084],[-76.34866,37.1687],[-76.35968,37.16836],[-76.38138,37.15571],[-76.4123,37.16148],[-76.40802,37.17502],[-76.394,37.17445],[-76.39079,37.19301],[-76.40208,37.20655],[-76.38687,37.22614],[-76.4718,37.21602],[-76.49401,37.22541],[-76.50903,37.23948],[-76.48284,37.25483],[-76.46456,37.24991],[-76.43393,37.25698],[-76.41717,37.26511],[-76.39008,37.26351],[-76.36239,37.26861],[-76.38208,37.29275],[-76.39685,37.30303],[-76.39934,37.31333],[-76.41919,37.30766],[-76.43856,37.31381],[-76.43821,37.32193],[-76.41634,37.32931],[-76.42089,37.34336],[-76.44415,37.36653],[-76.45651,37.35935],[-76.46732,37.36672],[-76.4672,37.37984],[-76.4287,37.38154],[-76.41453,37.36835],[-76.4161,37.4093],[-76.39899,37.41676],[-76.39685,37.40203],[-76.38525,37.38434],[-76.3486,37.37153],[-76.30858,37.32937],[-76.27455,37.31343],[-76.27468,37.34962],[-76.24775,37.37882],[-76.25241,37.43659],[-76.2561,37.45263],[-76.2807,37.46584],[-76.2719,37.4864],[-76.28104,37.50782],[-76.29774,37.50686],[-76.31733,37.48509],[-76.33616,37.5044],[-76.35938,37.51343],[-76.36163,37.53466],[-76.31191,37.5464],[-76.31554,37.56085],[-76.33264,37.57004],[-76.35783,37.5737],[-76.38512,37.57301],[-76.4286,37.58746],[-76.43339,37.61289],[-76.47569,37.61088],[-76.52719,37.61131],[-76.54925,37.62141],[-76.55716,37.63361],[-76.5772,37.64936],[-76.58968,37.66582],[-76.57935,37.67329],[-76.59639,37.69971],[-76.59721,37.71727],[-76.61923,37.73092],[-76.61971,37.7448],[-76.63996,37.75094],[-76.677,37.7561],[-76.6805,37.78014],[-76.68977,37.78519],[-76.7155,37.78587],[-76.73431,37.79866],[-76.7512,37.82414],[-76.76396,37.83533],[-76.77097,37.85479],[-76.78283,37.86318],[-76.79456,37.89519],[-76.82201,37.90251],[-76.83262,37.91623],[-76.84744,37.91648],[-76.88072,37.95106],[-76.87739,37.97046],[-76.89177,37.97505],[-76.91601,37.97364],[-76.92742,37.98179],[-76.9179,38.00276],[-76.93059,38.02427],[-76.9172,38.02962],[-76.90584,38.01903],[-76.89213,37.98629],[-76.87121,37.98591],[-76.85763,37.97346],[-76.85006,37.95116],[-76.83283,37.93166],[-76.8207,37.93316],[-76.79848,37.92519],[-76.76877,37.89913],[-76.76571,37.87927],[-76.74755,37.87586],[-76.74118,37.85525],[-76.70161,37.82268],[-76.6802,37.82565],[-76.6583,37.80682],[-76.627,37.80041],[-76.61899,37.78362],[-76.60202,37.77273],[-76.58582,37.77157],[-76.57142,37.74672],[-76.56955,37.7344],[-76.55584,37.7167],[-76.54198,37.70796],[-76.5353,37.68752],[-76.53419,37.66094],[-76.51191,37.645],[-76.50152,37.64376],[-76.48308,37.67504],[-76.48712,37.68539],[-76.4687,37.69573],[-76.45432,37.6772],[-76.46989,37.67024],[-76.45211,37.64878],[-76.43976,37.65243],[-76.42915,37.64125],[-76.40185,37.62738],[-76.38111,37.627],[-76.36232,37.61037],[-76.35461,37.62037],[-76.31266,37.6248],[-76.29218,37.61504],[-76.27945,37.61823],[-76.29253,37.6361],[-76.31294,37.64219],[-76.31979,37.62696],[-76.3318,37.62978],[-76.33989,37.65597],[-76.32514,37.67485],[-76.33441,37.68454],[-76.30244,37.69094],[-76.30316,37.70231],[-76.32027,37.71989],[-76.32027,37.73785],[-76.30863,37.74057],[-76.30981,37.77496],[-76.31647,37.79281],[-76.30756,37.80025],[-76.3066,37.82191],[-76.26606,37.8174],[-76.2505,37.83501],[-76.24956,37.85185],[-76.23696,37.8905],[-76.25039,37.89575],[-76.266,37.91138],[-76.34385,37.94735],[-76.40796,37.96278],[-76.44086,37.98348],[-76.47541,37.99221],[-76.46787,38.00502],[-76.47672,38.01426],[-76.51624,38.0262],[-76.54963,38.03042],[-76.52139,38.0464],[-76.5354,38.07363],[-76.5795,38.09487],[-76.60094,38.11008],[-76.61206,38.14866],[-76.62948,38.15305],[-76.64345,38.14825],[-76.63258,38.12731],[-76.63971,38.12198],[-76.66513,38.14764],[-76.68968,38.16015],[-76.7286,38.1317],[-76.73835,38.14768],[-76.76024,38.16658],[-76.79989,38.16893],[-76.83879,38.16348],[-76.87527,38.17221],[-76.91083,38.19707],[-76.93713,38.20238],[-76.96231,38.21408],[-76.96734,38.22719],[-76.95695,38.23682],[-76.96215,38.25649],[-76.98137,38.27421],[-77.001,38.27613],[-77.04454,38.26045],[-77.04819,38.18468],[-77.0623,38.17379],[-77.0693,38.15773],[-77.0948,38.16163],[-77.116,38.14993],[-77.11729,38.1208],[-77.14441,38.12085],[-77.14205,38.10196],[-77.1701,38.07954],[-77.15954,38.06422],[-77.14878,38.06134],[-77.14549,38.04636],[-77.12944,38.04499],[-77.12179,38.03363],[-77.13079,38.02056],[-77.12008,38.01313],[-77.08897,38.01364],[-77.06872,37.97153],[-77.08982,37.96379],[-77.10585,37.97143],[-77.14841,37.97203],[-77.16701,37.96413],[-77.18196,37.94958],[-77.17879,37.92896],[-77.18641,37.91125],[-77.17971,37.89745],[-77.20882,37.88571],[-77.21814,37.90383],[-77.23345,37.9092],[-77.24376,37.89617],[-77.25027,37.87243],[-77.28029,37.84361],[-77.34557,37.7922],[-77.35747,37.797],[-77.3747,37.77637],[-77.40573,37.78136],[-77.39524,37.80244],[-77.40781,37.80333]]]},"properties":{"CD119FP":"01","GEOID":"5101","NAMELSAD":"Congressional District 1"}},
{"type":"Feature","geometry":{"type":"Polygon","coordinates":[[[-79.43695,37.61706],[-79.42265,37.60163],[-79.40453,37.60751],[-79.38034,37.59055],[-79.37017,37.56882],[-79.36734,37.55115],[-79.34178,37.51733],[-79.30568,37.506],[-79.31419,37.48704],[-79.33912,37.4781],[-79.35603,37.48413],[-79.39304,37.4701],[-79.3991,37.45381],[-79.37821,37.44968],[-79.36276,37.4168],[-79.35623,37.39451],[-79.32015,37.36905],[-79.32877,37.35504],[-79.34769,37.34434],[-79.36664,37.3426],[-79.38878,37.33361],[-79.39904,37.32286],[-79.39166,37.31054],[-79.40778,37.27798],[-79.38963,37.26237],[-79.35927,37.24598],[-79.33048,37.23842],[-79.44286,37.05587],[-79.47785,37.06424],[-79.49139,37.05954],[-79.48018,37.04351],[-79.48327,37.03529],[-79.45949,37.02026],[-79.48438,37.00752],[-79.49518,37.02197],[-79.5423,37.04587],[-79.55948,37.0439],[-79.56431,37.0347],[-79.59407,37.04221],[-79.60623,37.00014],[-79.65786,36.7835],[-79.71484,36.542],[-79.51365,36.54076],[-79.24974,36.54114],[-78.97181,36.54212],[-78.7963,36.54171],[-78.66332,36.54201],[-78.50996,36.54107],[-78.45697,36.54247],[-78.24546,36.54441],[-78.04621,36.54417],[-78.03756,36.64661],[-78.03344,36.70845],[-78.02151,36.8396],[-78.00364,37.02276],[-77.96811,36.98729],[-77.95508,36.99129],[-77.92054,36.98274],[-77.90135,36.98925],[-77.89134,37.00015],[-77.90025,37.14388],[-77.87052,37.15037],[-77.8554,37.16418],[-77.83197,37.17031],[-77.81386,37.16968],[-77.7952,37.19505],[-77.78452,37.19703],[-77.74769,37.19273],[-77.68521,37.23579],[-77.66133,37.24074],[-77.65061,37.26511],[-77.66747,37.29247],[-77.71621,37.29688],[-77.71744,37.28486],[-77.73552,37.28419],[-77.73802,37.27036],[-77.75862,37.26872],[-77.76943,37.28498],[-77.78486,37.29649],[-77.80675,37.30453],[-77.80901,37.31536],[-77.79625,37.32397],[-77.79861,37.33432],[-77.83735,37.33838],[-77.85054,37.3451],[-77.85284,37.35665],[-77.87756,37.36625],[-77.87823,37.38351],[-77.87181,37.39943],[-77.87549,37.41602],[-77.84873,37.41495],[-77.83316,37.4228],[-77.809,37.42623],[-77.7988,37.44489],[-77.79784,37.45896],[-77.66533,37.55455],[-77.6554,37.56399],[-77.63871,37.56674],[-77.61643,37.57755],[-77.62635,37.59881],[-77.64026,37.60277],[-77.65212,37.61704],[-77.6537,37.64433],[-77.63082,37.7057],[-77.63993,37.71588],[-77.64132,37.73128],[-77.65269,37.74519],[-77.64867,37.75674],[-77.61233,37.75986],[-77.58877,37.77861],[-77.56977,37.80273],[-77.55244,37.77823],[-77.53507,37.77466],[-77.51981,37.77866],[-77.50286,37.77484],[-77.47653,37.77706],[-77.47033,37.78821],[-77.44604,37.80333],[-77.4267,37.79738],[-77.40781,37.80333],[-77.418,37.80911],[-77.4292,37.84195],[-77.42199,37.86493],[-77.44552,37.89472],[-77.48417,37.88337],[-77.49364,37.89755],[-77.51478,37.90433],[-77.54794,37.9262],[-77.57673,37.95807],[-77.58989,37.94927],[-77.61442,37.95959],[-77.66052,37.993],[-77.67133,38.00389],[-77.71286,38.01459],[-77.73101,38.03104],[-77.74851,38.02874],[-77.74781,38.04794],[-77.77851,38.05874],[-77.78661,38.07604],[-77.80651,38.07854],[-77.83622,38.10114],[-77.90022,38.10944],[-77.91672,38.11834],[-77.93422,38.11411],[-77.94437,38.11955],[-77.98031,38.1195],[-78.00195,38.13758],[-78.02193,38.14204],[-78.03891,38.13485],[-78.07446,38.14117],[-78.10214,38.15238],[-78.11477,38.1413],[-78.14434,38.143],[-78.17142,38.12969],[-78.20938,38.13113],[-78.34432,38.17779],[-78.39671,38.19208],[-78.44242,38.2073],[-78.5937,38.25352],[-78.5963,38.23743],[-78.65437,38.24496],[-78.66156,38.23402],[-78.7082,38.22878],[-78.72644,38.22997],[-78.74517,38.21443],[-78.75261,38.19424],[-78.76835,38.17347],[-78.77543,38.14101],[-78.78807,38.1264],[-78.77921,38.10688],[-78.77891,38.08437],[-78.79279,38.0695],[-78.82169,38.05923],[-78.8581,38.02943],[-78.87369,38.02862],[-78.89214,37.99449],[-78.90694,37.98754],[-78.89278,37.97383],[-78.90052,37.94937],[-78.94207,37.94024],[-78.95906,37.92046],[-78.98516,37.902],[-79.00579,37.88159],[-79.01762,37.89229],[-79.04433,37.8909],[-79.05223,37.91012],[-79.09122,37.91093],[-79.14664,37.88883],[-79.15257,37.88108],[-79.14439,37.8561],[-79.171,37.80031],[-79.19882,37.78798],[-79.23402,37.81233],[-79.26467,37.79469],[-79.29827,37.75022],[-79.3181,37.71296],[-79.32238,37.69276],[-79.34058,37.67863],[-79.34523,37.66063],[-79.36557,37.6457],[-79.38035,37.64276],[-79.40184,37.62599],[-79.41963,37.62567],[-79.43695,37.61706]]]},"properties":{"CD119FP":"05","GEOID":"5105","NAMELSAD":"Congressional District 5"}},
{"type":"Feature","geometry":{"type":"Polygon","coordinates":[[[-78.33818,38.62731],[-78.36031,38.61361],[-78.38566,38.58266],[-78.38069,38.56172],[-78.41376,38.5472],[-78.43312,38.52661],[-78.44677,38.49929],[-78.44216,38.4944],[-78.46689,38.44757],[-78.47269,38.44745],[-78.49321,38.40629],[-78.53188,38.3661],[-78.55381,38.3485],[-78.557,38.33198],[-78.58751,38.32483],[-78.60272,38.30689],[-78.65121,38.29346],[-78.6639,38.27668],[-78.65724,38.26057],[-78.66872,38.25068],[-78.68103,38.25491],[-78.72644,38.22997],[-78.7082,38.22878],[-78.66156,38.23402],[-78.65437,38.24496],[-78.5963,38.23743],[-78.5937,38.25352],[-78.44242,38.2073],[-78.39671,38.19208],[-78.34432,38.17779],[-78.20938,38.13113],[-78.17142,38.12969],[-78.14434,38.143],[-78.11477,38.1413],[-78.10214,38.15238],[-78.07446,38.14117],[-78.03891,38.13485],[-78.02193,38.14204],[-78.00195,38.13758],[-77.98031,38.1195],[-77.94437,38.11955],[-77.93422,38.11411],[-77.91672,38.11834],[-77.90022,38.10944],[-77.83622,38.10114],[-77.80651,38.07854],[-77.78661,38.07604],[-77.77851,38.05874],[-77.74781,38.04794],[-77.74851,38.02874],[-77.73101,38.03104],[-77.71286,38.01459],[-77.67133,38.00389],[-77.66052,37.993],[-77.61442,37.95959],[-77.58989,37.94927],[-77.57673,37.95807],[-77.54794,37.9262],[-77.51478,37.90433],[-77.49364,37.89755],[-77.48417,37.88337],[-77.44552,37.89472],[-77.42199,37.86493],[-77.4292,37.84195],[-77.418,37.80911],[-77.40781,37.80333],[-77.39524,37.80244],[-77.40573,37.78136],[-77.3747,37.77637],[-77.35747,37.797],[-77.34557,37.7922],[-77.28029,37.84361],[-77.25027,37.87243],[-77.24376,37.89617],[-77.23345,37.9092],[-77.21814,37.90383],[-77.20882,37.88571],[-77.17971,37.89745],[-77.18641,37.91125],[-77.17879,37.92896],[-77.18196,37.94958],[-77.16701,37.96413],[-77.14841,37.97203],[-77.10585,37.97143],[-77.08982,37.96379],[-77.06872,37.97153],[-77.08897,38.01364],[-77.12008,38.01313],[-77.13079,38.02056],[-77.12179,38.03363],[-77.12944,38.04499],[-77.14549,38.04636],[-77.14878,38.06134],[-77.15954,38.06422],[-77.1701,38.07954],[-77.14205,38.10196],[-77.14441,38.12085],[-77.11729,38.1208],[-77.116,38.14993],[-77.0948,38.16163],[-77.0693,38.15773],[-77.0623,38.17379],[-77.04819,38.18468],[-77.04454,38.26045],[-77.001,38.27613],[-77.00187,38.28174],[-77.03068,38.31162],[-77.01491,38.33276],[-77.0185,38.38194],[-77.04152,38.40019],[-77.05342,38.39881],[-77.07071,38.37764],[-77.08481,38.3683],[-77.13822,38.36792],[-77.16269,38.34599],[-77.20449,38.34041],[-77.2401,38.33099],[-77.26455,38.33244],[-77.27963,38.33944],[-77.29608,38.3698],[-77.31729,38.38358],[-77.31072,38.39767],[-77.32629,38.4436],[-77.32262,38.46713],[-77.30845,38.49663],[-77.28275,38.52625],[-77.2766,38.54712],[-77.25703,38.5612],[-77.2653,38.58032],[-77.247,38.59062],[-77.25649,38.59908],[-77.2451,38.62072],[-77.2467,38.63522],[-77.22393,38.64597],[-77.2339,38.66134],[-77.2395,38.66653],[-77.25791,38.6847],[-77.30206,38.70762],[-77.31314,38.70195],[-77.3323,38.71652],[-77.35073,38.68923],[-77.37507,38.67438],[-77.39515,38.67242],[-77.41915,38.65955],[-77.44074,38.65863],[-77.44281,38.63096],[-77.47701,38.63974],[-77.51164,38.64155],[-77.51527,38.62749],[-77.55313,38.61509],[-77.5693,38.61881],[-77.53282,38.55722],[-77.56087,38.52706],[-77.63384,38.46689],[-77.62855,38.45207],[-77.63494,38.41022],[-77.69036,38.427],[-77.73552,38.41312],[-77.74142,38.42571],[-77.75508,38.4294],[-77.76193,38.44107],[-77.76179,38.45882],[-77.77479,38.4634],[-77.78215,38.48506],[-77.80113,38.5031],[-77.81144,38.52475],[-77.8435,38.54471],[-77.87717,38.58489],[-77.86238,38.59853],[-77.87401,38.60713],[-77.86856,38.62336],[-77.8717,38.64855],[-77.88415,38.66664],[-77.90347,38.67005],[-77.9061,38.69589],[-77.93134,38.69837],[-78.09013,38.59679],[-78.16879,38.52381],[-78.19107,38.52406],[-78.21251,38.53732],[-78.2318,38.53254],[-78.33818,38.62731]]]},"properties":{"CD119FP":"07","GEOID":"5107","NAMELSAD":"Congressional District 7"}},
{"type":"Feature","geometry":{"type":"Polygon","coordinates":[[[-77.32828,39.05779],[-77.49682,38.88715],[-77.47251,38.87541],[-77.47742,38.85021],[-77.46585,38.84564],[-77.45571,38.81165],[-77.42143,38.80214],[-77.40562,38.83256],[-77.39338,38.84125],[-77.38102,38.81786],[-77.35851,38.78644],[-77.34549,38.78265],[-77.31254,38.78524],[-77.29985,38.77546],[-77.31376,38.76689],[-77.31724,38.75129],[-77.35877,38.72791],[-77.3323,38.71652],[-77.31314,38.70195],[-77.30206,38.70762],[-77.25791,38.6847],[-77.2395,38.66653],[-77.2067,38.68866],[-77.19045,38.7204],[-77.17391,38.72198],[-77.15889,38.75261],[-77.13607,38.78407],[-77.13539,38.79651],[-77.1794,38.7893],[-77.2036,38.7935],[-77.22213,38.82036],[-77.21793,38.83425],[-77.22121,38.88312],[-77.21737,38.91013],[-77.19624,38.92347],[-77.21023,38.93149],[-77.20252,38.94553],[-77.1796,38.96841],[-77.2215,38.97131],[-77.24462,38.98254],[-77.2557,39.00241],[-77.2446,39.02011],[-77.2553,39.03001],[-77.27471,39.03409],[-77.2931,39.04651],[-77.32828,39.05779]]]},"properties":{"CD119FP":"11","GEOID":"5111","NAMELSAD":"Congressional District 11"}},
{"type":"Feature","geometry":{"type":"Polygon","coordinates":[[[-77.65061,37.26511],[-77.66133,37.24074],[-77.68521,37.23579],[-77.74769,37.19273],[-77.78452,37.19703],[-77.7952,37.19505],[-77.81386,37.16968],[-77.83197,37.17031],[-77.8554,37.16418],[-77.87052,37.15037],[-77.90025,37.14388],[-77.89134,37.00015],[-77.90135,36.98925],[-77.92054,36.98274],[-77.95508,36.99129],[-77.96811,36.98729],[-78.00364,37.02276],[-78.02151,36.8396],[-78.03344,36.70845],[-78.03756,36.64661],[-78.04621,36.54417],[-77.74971,36.54552],[-77.47444,36.54505],[-77.20516,36.54458],[-77.16966,36.54731],[-77.15269,36.54408],[-77.10303,36.54445],[-77.09839,36.55817],[-77.07189,36.54588],[-77.05801,36.55719],[-77.06653,36.56997],[-77.09935,36.60223],[-77.07854,36.61257],[-77.04574,36.61652],[-77.05289,36.64142],[-77.08269,36.63501],[-77.07679,36.6594],[-77.08274,36.6724],[-77.07594,36.69406],[-77.08112,36.72287],[-77.06379,36.73381],[-77.06239,36.74922],[-77.04592,36.77432],[-77.02049,36.77446],[-77.0115,36.79512],[-76.97077,36.78513],[-76.96365,36.80373],[-76.95065,36.81154],[-76.94558,36.83133],[-76.97144,36.83312],[-76.98356,36.8464],[-76.98611,36.86009],[-77.0117,36.85565],[-77.01663,36.86653],[-77.00961,36.8856],[-76.9809,36.88402],[-76.97007,36.88847],[-76.98888,36.91445],[-77.0021,36.92075],[-76.83758,37.00224],[-76.71177,37.05538],[-76.70118,37.0662],[-76.68419,37.10389],[-76.67517,37.10864],[-76.68029,37.12629],[-76.67159,37.14206],[-76.67147,37.15874],[-76.66377,37.17388],[-76.68658,37.19727],[-76.71529,37.14804],[-76.73032,37.1454],[-76.74763,37.15055],[-76.76193,37.16811],[-76.78272,37.17824],[-76.80251,37.19831],[-76.81849,37.20532],[-76.8657,37.20902],[-76.90251,37.19983],[-76.94708,37.22803],[-76.94042,37.23768],[-76.91784,37.23427],[-76.8974,37.25055],[-76.87519,37.2608],[-76.88156,37.28551],[-76.87168,37.2956],[-76.88,37.30987],[-76.87363,37.34256],[-76.87351,37.36342],[-76.88477,37.36857],[-76.90535,37.35064],[-76.91586,37.35262],[-76.8981,37.37515],[-76.91793,37.38426],[-76.90637,37.39261],[-76.94308,37.41039],[-76.96882,37.40651],[-76.98324,37.42027],[-77.00765,37.41375],[-77.02132,37.41601],[-77.02668,37.42901],[-77.05478,37.43187],[-77.07629,37.44129],[-77.09595,37.44028],[-77.11531,37.45277],[-77.12687,37.47158],[-77.16164,37.47652],[-77.16465,37.48471],[-77.19194,37.50124],[-77.23185,37.53964],[-77.24681,37.53931],[-77.26591,37.55186],[-77.30594,37.56101],[-77.36267,37.58868],[-77.39113,37.59809],[-77.40871,37.61466],[-77.40538,37.62603],[-77.43342,37.64505],[-77.45189,37.63615],[-77.46663,37.64759],[-77.47676,37.6457],[-77.48973,37.65947],[-77.50426,37.65914],[-77.51235,37.64395],[-77.53144,37.64923],[-77.54072,37.63284],[-77.525,37.62069],[-77.51149,37.59548],[-77.53148,37.59179],[-77.54747,37.57254],[-77.52586,37.56824],[-77.52983,37.55923],[-77.56014,37.55557],[-77.59546,37.55575],[-77.59277,37.53366],[-77.57858,37.53223],[-77.55247,37.54177],[-77.53722,37.51309],[-77.55469,37.50362],[-77.58397,37.46793],[-77.62188,37.46261],[-77.60036,37.45227],[-77.59384,37.43966],[-77.62384,37.42839],[-77.61659,37.41159],[-77.59128,37.41144],[-77.59497,37.39689],[-77.58954,37.38513],[-77.61359,37.36598],[-77.61863,37.35008],[-77.63044,37.33708],[-77.60203,37.33366],[-77.57593,37.31641],[-77.55808,37.32126],[-77.56894,37.28089],[-77.55702,37.25015],[-77.58398,37.2461],[-77.60051,37.25374],[-77.61335,37.27088],[-77.65061,37.26511]]]},"properties":{"CD119FP":"04","GEOID":"5104","NAMELSAD":"Congressional District 4"}},
{"type":"Feature","geometry":{"type":"Polygon","coordinates":[[[-77.8283,39.13242],[-77.8438,39.11975],[-77.86282,39.08098],[-77.8776,39.07804],[-77.89328,39.05543],[-77.94123,39.02347],[-77.9564,39.02086],[-77.9655,39.00874],[-77.98129,39.00241],[-78.01448,38.97157],[-78.04158,38.9381],[-78.05909,38.9326],[-78.07528,38.91187],[-78.06176,38.90025],[-78.07367,38.88658],[-78.09198,38.88559],[-78.12637,38.87293],[-78.12987,38.86281],[-78.16859,38.83369],[-78.17862,38.81583],[-78.1847,38.79284],[-78.20669,38.7742],[-78.23464,38.76747],[-78.25277,38.75717],[-78.27934,38.76221],[-78.3049,38.73817],[-78.31877,38.73787],[-78.3317,38.70264],[-78.31992,38.69824],[-78.31439,38.68251],[-78.32384,38.67209],[-78.31558,38.65156],[-78.32587,38.63072],[-78.33818,38.62731],[-78.2318,38.53254],[-78.21251,38.53732],[-78.19107,38.52406],[-78.16879,38.52381],[-78.09013,38.59679],[-77.93134,38.69837],[-77.9061,38.69589],[-77.90347,38.67005],[-77.88415,38.66664],[-77.8717,38.64855],[-77.86856,38.62336],[-77.87401,38.60713],[-77.86238,38.59853],[-77.87717,38.58489],[-77.8435,38.54471],[-77.81144,38.52475],[-77.80113,38.5031],[-77.78215,38.48506],[-77.77479,38.4634],[-77.76179,38.45882],[-77.76193,38.44107],[-77.75508,38.4294],[-77.74142,38.42571],[-77.73552,38.41312],[-77.69036,38.427],[-77.63494,38.41022],[-77.62855,38.45207],[-77.63384,38.46689],[-77.56087,38.52706],[-77.53282,38.55722],[-77.5693,38.61881],[-77.55313,38.61509],[-77.51527,38.62749],[-77.51164,38.64155],[-77.47701,38.63974],[-77.44281,38.63096],[-77.44074,38.65863],[-77.41915,38.65955],[-77.39515,38.67242],[-77.37507,38.67438],[-77.35073,38.68923],[-77.3323,38.71652],[-77.35877,38.72791],[-77.31724,38.75129],[-77.31376,38.76689],[-77.29985,38.77546],[-77.31254,38.78524],[-77.34549,38.78265],[-77.35851,38.78644],[-77.38102,38.81786],[-77.39338,38.84125],[-77.40562,38.83256],[-77.42143,38.80214],[-77.45571,38.81165],[-77.46585,38.84564],[-77.47742,38.85021],[-77.47251,38.87541],[-77.49682,38.88715],[-77.32828,39.05779],[-77.3421,39.06284],[-77.37508,39.0613],[-77.42318,39.06688],[-77.46262,39.07625],[-77.4858,39.1093],[-77.51532,39.11859],[-77.52456,39.12782],[-77.52728,39.14624],[-77.51643,39.17089],[-77.50516,39.18205],[-77.48597,39.18567],[-77.47501,39.19493],[-77.47361,39.20841],[-77.45768,39.22502],[-77.48681,39.24759],[-77.50843,39.25263],[-77.54323,39.26694],[-77.56085,39.28615],[-77.5666,39.30612],[-77.58823,39.30196],[-77.61594,39.30272],[-77.651,39.31078],[-77.67585,39.32419],[-77.69746,39.31863],[-77.71952,39.32131],[-77.7349,39.31241],[-77.74729,39.295],[-77.77141,39.23678],[-77.79363,39.21013],[-77.8051,39.17422],[-77.82287,39.14775],[-77.8283,39.13242]]]},"properties":{"CD119FP":"10","GEOID":"5110","NAMELSAD":"Congressional District 10"}},
{"type":"Feature","geometry":{"type":"Polygon","coordinates":[[[-81.96801,37.53804],[-82.05089,37.48053],[-82.12485,37.42727],[-82.20174,37.37511],[-82.31603,37.29488],[-82.32462,37.28318],[-82.35095,37.26708],[-82.43102,37.24677],[-82.44916,37.24391],[-82.49886,37.22704],[-82.52012,37.21291],[-82.55037,37.20446],[-82.59245,37.18285],[-82.63349,37.15426],[-82.65165,37.15191],[-82.67676,37.13497],[-82.6846,37.13584],[-82.7221,37.12017],[-82.72225,37.05795],[-82.72628,37.0421],[-82.74368,37.0414],[-82.78214,37.00824],[-82.82268,37.00413],[-82.845,36.98381],[-82.86918,36.97418],[-82.87023,36.9655],[-82.8561,36.95247],[-82.86003,36.92524],[-82.87747,36.90796],[-82.87949,36.88909],[-82.93757,36.86728],[-82.97025,36.85769],[-82.99838,36.85663],[-83.00609,36.84789],[-83.02689,36.85549],[-83.04759,36.85179],[-83.07259,36.85459],[-83.07519,36.84089],[-83.10179,36.82909],[-83.09849,36.81429],[-83.11914,36.78953],[-83.13324,36.78321],[-83.12783,36.75083],[-83.13639,36.74309],[-83.1946,36.73949],[-83.2878,36.71379],[-83.3071,36.71139],[-83.3861,36.68659],[-83.39581,36.67679],[-83.42371,36.66739],[-83.45471,36.66479],[-83.49391,36.67009],[-83.53191,36.66498],[-83.54181,36.65658],[-83.56261,36.65128],[-83.57731,36.64178],[-83.61451,36.63398],[-83.62501,36.62518],[-83.64951,36.61668],[-83.67539,36.60078],[-83.62262,36.59806],[-83.47211,36.59728],[-83.2763,36.59819],[-83.2611,36.59389],[-82.88801,36.59346],[-82.67988,36.5937],[-82.48152,36.59576],[-82.46661,36.59448],[-82.2105,36.59577],[-82.17398,36.59461],[-81.93414,36.59421],[-81.92264,36.61621],[-81.73694,36.61238],[-81.6469,36.61192],[-81.67754,36.58812],[-81.60093,36.58702],[-81.52103,36.58052],[-81.37482,36.57467],[-81.30751,36.57502],[-81.05884,36.56698],[-81.0038,36.56363],[-80.94599,36.5632],[-80.83764,36.55912],[-80.70483,36.56232],[-80.62479,36.55841],[-80.29524,36.54397],[-80.12218,36.54265],[-79.71484,36.542],[-79.65786,36.7835],[-79.60623,37.00014],[-79.59407,37.04221],[-79.56431,37.0347],[-79.55948,37.0439],[-79.5423,37.04587],[-79.49518,37.02197],[-79.48438,37.00752],[-79.45949,37.02026],[-79.48327,37.03529],[-79.48018,37.04351],[-79.49139,37.05954],[-79.47785,37.06424],[-79.44286,37.05587],[-79.33048,37.23842],[-79.35927,37.24598],[-79.38963,37.26237],[-79.40778,37.27798],[-79.39166,37.31054],[-79.39904,37.32286],[-79.38878,37.33361],[-79.36664,37.3426],[-79.34769,37.34434],[-79.32877,37.35504],[-79.32015,37.36905],[-79.35623,37.39451],[-79.36276,37.4168],[-79.37821,37.44968],[-79.3991,37.45381],[-79.39304,37.4701],[-79.35603,37.48413],[-79.33912,37.4781],[-79.31419,37.48704],[-79.30568,37.506],[-79.34178,37.51733],[-79.36734,37.55115],[-79.37017,37.56882],[-79.38034,37.59055],[-79.40453,37.60751],[-79.42265,37.60163],[-79.43695,37.61706],[-79.45788,37.60601],[-79.4411,37.56345],[-79.45838,37.55989],[-79.46411,37.54956],[-79.47899,37.54838],[-79.50493,37.52934],[-79.51894,37.50845],[-79.53312,37.50526],[-79.54605,37.48922],[-79.56736,37.48772],[-79.59371,37.44886],[-79.61718,37.45802],[-79.62816,37.4536],[-79.63977,37.4711],[-79.6588,37.48501],[-79.69006,37.47637],[-79.7116,37.45478],[-79.75618,37.42538],[-79.79049,37.40879],[-79.8142,37.40365],[-79.79218,37.38082],[-79.77862,37.38178],[-79.78868,37.34935],[-79.8442,37.31775],[-79.85038,37.29511],[-79.84777,37.27847],[-79.85841,37.26716],[-79.84647,37.24739],[-79.84249,37.23028],[-79.86093,37.2175],[-79.88257,37.20971],[-79.89386,37.19931],[-79.89512,37.18183],[-79.91182,37.17696],[-79.92093,37.16076],[-79.94631,37.15009],[-79.96282,37.13727],[-79.9896,37.14342],[-80.00522,37.15983],[-79.99174,37.1921],[-79.95608,37.21033],[-79.97144,37.22957],[-80.00411,37.24875],[-80.02883,37.24365],[-80.08172,37.26487],[-80.08846,37.28227],[-80.11204,37.27711],[-80.1232,37.26784],[-80.13834,37.27044],[-80.16791,37.25993],[-80.17933,37.24202],[-80.19254,37.23438],[-80.25833,37.30843],[-80.26218,37.34153],[-80.2003,37.37836],[-80.14756,37.38255],[-80.07894,37.41945],[-80.04759,37.4431],[-80.03046,37.4755],[-80.01443,37.49485],[-80.0095,37.51083],[-79.96907,37.54441],[-80.02762,37.62422],[-80.03203,37.63856],[-80.02055,37.64744],[-80.03271,37.66029],[-80.08746,37.62667],[-80.1048,37.62269],[-80.12322,37.60738],[-80.14439,37.59663],[-80.16758,37.60827],[-80.16844,37.61538],[-80.2052,37.61629],[-80.22098,37.62777],[-80.24027,37.60696],[-80.25892,37.5955],[-80.3285,37.56432],[-80.31239,37.54624],[-80.33031,37.53624],[-80.30935,37.52738],[-80.28239,37.53352],[-80.29979,37.50827],[-80.36317,37.48],[-80.42566,37.44988],[-80.44303,37.43813],[-80.4756,37.42295],[-80.49487,37.43507],[-80.49298,37.45775],[-80.51139,37.48167],[-80.55204,37.47356],[-80.6002,37.44617],[-80.7052,37.39462],[-80.77008,37.37236],[-80.78419,37.39459],[-80.80636,37.40412],[-80.83645,37.42436],[-80.857,37.42705],[-80.86276,37.41183],[-80.88325,37.38393],[-80.84945,37.34691],[-80.86899,37.33857],[-80.90054,37.315],[-80.9479,37.29587],[-80.98015,37.29274],[-80.97959,37.30228],[-81.03719,37.29025],[-81.1126,37.2785],[-81.16703,37.26288],[-81.2251,37.23487],[-81.3201,37.29932],[-81.36216,37.33769],[-81.37445,37.31861],[-81.38673,37.32047],[-81.39855,37.31064],[-81.41666,37.27321],[-81.43716,37.27407],[-81.46058,37.26553],[-81.48014,37.25112],[-81.50319,37.25258],[-81.50879,37.23256],[-81.54444,37.22076],[-81.56062,37.20666],[-81.67821,37.20148],[-81.68672,37.21311],[-81.71573,37.22877],[-81.72306,37.24049],[-81.73854,37.23826],[-81.74097,37.25405],[-81.76175,37.27571],[-81.80327,37.28592],[-81.81962,37.27941],[-81.85355,37.2877],[-81.85446,37.30657],[-81.87834,37.32884],[-81.89377,37.33011],[-81.89949,37.3411],[-81.91668,37.34935],[-81.93587,37.37855],[-81.92878,37.39385],[-81.93247,37.41522],[-81.94937,37.44569],[-81.96797,37.44659],[-81.97338,37.45607],[-81.99227,37.46092],[-81.99658,37.47671],[-81.97759,37.4846],[-81.94304,37.50861],[-81.94369,37.52121],[-81.96801,37.53804]]]},"properties":{"CD119FP":"09","GEOID":"5109","NAMELSAD":"Congressional District 9"}},
{"type":"Feature","geometry":{"type":"Polygon","coordinates":[[[-79.05725,38.76141],[-79.07255,38.74751],[-79.09275,38.70232],[-79.08435,38.68652],[-79.09295,38.65952],[-79.12026,38.66022],[-79.13106,38.65322],[-79.15535,38.61122],[-79.16346,38.58312],[-79.20586,38.52452],[-79.21059,38.49291],[-79.22567,38.47647],[-79.24006,38.46984],[-79.27968,38.42417],[-79.31228,38.41188],[-79.47664,38.45723],[-79.52147,38.53392],[-79.53687,38.55092],[-79.64907,38.59152],[-79.66287,38.57042],[-79.67297,38.52872],[-79.66207,38.51552],[-79.68037,38.51062],[-79.69451,38.49423],[-79.69901,38.47515],[-79.6882,38.45048],[-79.68967,38.43144],[-79.70663,38.41573],[-79.7317,38.37338],[-79.7256,38.36383],[-79.74411,38.35397],[-79.76443,38.35651],[-79.77309,38.33553],[-79.79655,38.32348],[-79.81011,38.30504],[-79.79545,38.29023],[-79.78754,38.2733],[-79.82101,38.24828],[-79.84644,38.24],[-79.89843,38.19305],[-79.9212,38.18038],[-79.91638,38.16302],[-79.92903,38.13977],[-79.94484,38.13159],[-79.93895,38.11162],[-79.92633,38.10715],[-79.95437,38.0804],[-79.95984,38.0637],[-80.00251,37.99277],[-80.04841,37.95748],[-80.07451,37.94222],[-80.09656,37.91811],[-80.10293,37.91891],[-80.14195,37.88262],[-80.1622,37.87512],[-80.18638,37.83774],[-80.21861,37.80978],[-80.22949,37.79233],[-80.23046,37.77831],[-80.26276,37.73834],[-80.25202,37.72983],[-80.28711,37.6964],[-80.29614,37.69178],[-80.27937,37.65708],[-80.26745,37.64611],[-80.23929,37.63767],[-80.22098,37.62777],[-80.2052,37.61629],[-80.16844,37.61538],[-80.16758,37.60827],[-80.14439,37.59663],[-80.12322,37.60738],[-80.1048,37.62269],[-80.08746,37.62667],[-80.03271,37.66029],[-80.02055,37.64744],[-80.03203,37.63856],[-80.02762,37.62422],[-79.96907,37.54441],[-80.0095,37.51083],[-80.01443,37.49485],[-80.03046,37.4755],[-80.04759,37.4431],[-80.07894,37.41945],[-80.14756,37.38255],[-80.2003,37.37836],[-80.26218,37.34153],[-80.25833,37.30843],[-80.19254,37.23438],[-80.17933,37.24202],[-80.16791,37.25993],[-80.13834,37.27044],[-80.1232,37.26784],[-80.11204,37.27711],[-80.08846,37.28227],[-80.08172,37.26487],[-80.02883,37.24365],[-80.00411,37.24875],[-79.97144,37.22957],[-79.95608,37.21033],[-79.99174,37.1921],[-80.00522,37.15983],[-79.9896,37.14342],[-79.96282,37.13727],[-79.94631,37.15009],[-79.92093,37.16076],[-79.91182,37.17696],[-79.89512,37.18183],[-79.89386,37.19931],[-79.88257,37.20971],[-79.86093,37.2175],[-79.84249,37.23028],[-79.84647,37.24739],[-79.85841,37.26716],[-79.84777,37.27847],[-79.85038,37.29511],[-79.8442,37.31775],[-79.78868,37.34935],[-79.77862,37.38178],[-79.79218,37.38082],[-79.8142,37.40365],[-79.79049,37.40879],[-79.75618,37.42538],[-79.7116,37.45478],[-79.69006,37.47637],[-79.6588,37.48501],[-79.63977,37.4711],[-79.62816,37.4536],[-79.61718,37.45802],[-79.59371,37.44886],[-79.56736,37.48772],[-79.54605,37.48922],[-79.53312,37.50526],[-79.51894,37.50845],[-79.50493,37.52934],[-79.47899,37.54838],[-79.46411,37.54956],[-79.45838,37.55989],[-79.4411,37.56345],[-79.45788,37.60601],[-79.43695,37.61706],[-79.41963,37.62567],[-79.40184,37.62599],[-79.38035,37.64276],[-79.36557,37.6457],[-79.34523,37.66063],[-79.34058,37.67863],[-79.32238,37.69276],[-79.3181,37.71296],[-79.29827,37.75022],[-79.26467,37.79469],[-79.23402,37.81233],[-79.19882,37.78798],[-79.171,37.80031],[-79.14439,37.8561],[-79.15257,37.88108],[-79.14664,37.88883],[-79.09122,37.91093],[-79.05223,37.91012],[-79.04433,37.8909],[-79.01762,37.89229],[-79.00579,37.88159],[-78.98516,37.902],[-78.95906,37.92046],[-78.94207,37.94024],[-78.90052,37.94937],[-78.89278,37.97383],[-78.90694,37.98754],[-78.89214,37.99449],[-78.87369,38.02862],[-78.8581,38.02943],[-78.82169,38.05923],[-78.79279,38.0695],[-78.77891,38.08437],[-78.77921,38.10688],[-78.78807,38.1264],[-78.77543,38.14101],[-78.76835,38.17347],[-78.75261,38.19424],[-78.74517,38.21443],[-78.72644,38.22997],[-78.68103,38.25491],[-78.66872,38.25068],[-78.65724,38.26057],[-78.6639,38.27668],[-78.65121,38.29346],[-78.60272,38.30689],[-78.58751,38.32483],[-78.557,38.33198],[-78.55381,38.3485],[-78.53188,38.3661],[-78.49321,38.40629],[-78.47269,38.44745],[-78.46689,38.44757],[-78.44216,38.4944],[-78.44677,38.49929],[-78.43312,38.52661],[-78.41376,38.5472],[-78.38069,38.56172],[-78.38566,38.58266],[-78.36031,38.61361],[-78.33818,38.62731],[-78.32587,38.63072],[-78.31558,38.65156],[-78.32384,38.67209],[-78.31439,38.68251],[-78.31992,38.69824],[-78.3317,38.70264],[-78.31877,38.73787],[-78.3049,38.73817],[-78.27934,38.76221],[-78.25277,38.75717],[-78.23464,38.76747],[-78.20669,38.7742],[-78.1847,38.79284],[-78.17862,38.81583],[-78.16859,38.83369],[-78.12987,38.86281],[-78.12637,38.87293],[-78.09198,38.88559],[-78.07367,38.88658],[-78.06176,38.90025],[-78.07528,38.91187],[-78.05909,38.9326],[-78.04158,38.9381],[-78.01448,38.97157],[-77.98129,39.00241],[-77.9655,39.00874],[-77.9564,39.02086],[-77.94123,39.02347],[-77.89328,39.05543],[-77.8776,39.07804],[-77.86282,39.08098],[-77.8438,39.11975],[-77.8283,39.13242],[-78.03284,39.2644],[-78.15819,39.34339],[-78.26278,39.41432],[-78.34709,39.46601],[-78.34672,39.42762],[-78.35935,39.41253],[-78.34321,39.38881],[-78.36687,39.35929],[-78.34048,39.35349],[-78.36003,39.31777],[-78.38724,39.29343],[-78.41942,39.25748],[-78.39978,39.24413],[-78.40558,39.23118],[-78.43865,39.19805],[-78.41894,39.17735],[-78.4037,39.16745],[-78.42729,39.15273],[-78.43943,39.13215],[-78.45987,39.11335],[-78.47843,39.10984],[-78.51648,39.0818],[-78.5719,39.032],[-78.55047,39.01807],[-78.58046,38.99057],[-78.60165,38.9646],[-78.62045,38.9826],[-78.64659,38.96814],[-78.65905,38.94738],[-78.68046,38.92531],[-78.68827,38.92478],[-78.71617,38.90483],[-78.72245,38.93141],[-78.73892,38.92728],[-78.75908,38.90053],[-78.78803,38.88512],[-78.80818,38.85618],[-78.82117,38.83098],[-78.86928,38.76299],[-78.994,38.8501],[-79.00615,38.82451],[-79.01955,38.81791],[-79.02725,38.79211],[-79.05495,38.78571],[-79.05725,38.76141]]]},"properties":{"CD119FP":"06","GEOID":"5106","NAMELSAD":"Congressional District 6"}},
{"type":"Feature","geometry":{"type":"MultiPolygon","coordinates":[[[[-75.98103,37.09714],[-75.9672,37.0846],[-75.94489,37.08804],[-75.94716,37.10308],[-75.96205,37.1075],[-75.98103,37.09714]]],[[[-75.99926,37.8297],[-75.99577,37.8126],[-75.97354,37.83354],[-75.99874,37.84536],[-75.99926,37.8297]]],[[[-75.64823,37.96677],[-75.63687,37.95564],[-75.64305,37.93633],[-75.6787,37.94271],[-75.69394,37.93036],[-75.71934,37.93446],[-75.74347,37.91206],[-75.72049,37.90193],[-75.69688,37.90183],[-75.67894,37.88833],[-75.68928,37.85953],[-75.67228,37.8509],[-75.68916,37.83645],[-75.70291,37.84966],[-75.71946,37.82058],[-75.71887,37.79326],[-75.74418,37.78603],[-75.77061,37.8046],[-75.7934,37.80449],[-75.8164,37.78934],[-75.80431,37.78143],[-75.78732,37.7571],[-75.81215,37.7495],[-75.82968,37.73499],[-75.82594,37.72815],[-75.80075,37.73304],[-75.80954,37.71753],[-75.83593,37.70982],[-75.85233,37.68537],[-75.84591,37.66976],[-75.86848,37.66822],[-75.88726,37.65315],[-75.89239,37.63748],[-75.88453,37.63198],[-75.88204,37.60722],[-75.8976,37.60779],[-75.90959,37.62267],[-75.92541,37.5963],[-75.91757,37.58585],[-75.932,37.57956],[-75.94118,37.56384],[-75.9323,37.55062],[-75.94997,37.52188],[-75.95897,37.50013],[-75.9635,37.47535],[-75.95845,37.46946],[-75.97963,37.43829],[-75.9831,37.4158],[-75.96748,37.39981],[-76.00064,37.34693],[-76.01216,37.33379],[-76.02155,37.30051],[-76.013,37.27944],[-76.02575,37.25741],[-76.00979,37.23413],[-76.01306,37.20603],[-75.97651,37.15442],[-75.97007,37.11719],[-75.92779,37.13027],[-75.89837,37.11855],[-75.85971,37.15688],[-75.83546,37.17454],[-75.82064,37.19299],[-75.82063,37.21306],[-75.80138,37.22046],[-75.80371,37.23863],[-75.79455,37.26235],[-75.79202,37.28199],[-75.7976,37.29611],[-75.77588,37.29866],[-75.75717,37.31404],[-75.7323,37.34447],[-75.72733,37.36035],[-75.67525,37.43172],[-75.66206,37.44342],[-75.66667,37.46281],[-75.67838,37.45978],[-75.69106,37.47361],[-75.68484,37.48735],[-75.66242,37.49067],[-75.64524,37.51564],[-75.60015,37.57135],[-75.61286,37.57728],[-75.61453,37.6093],[-75.59932,37.63688],[-75.59076,37.66736],[-75.58935,37.6912],[-75.5805,37.69669],[-75.56295,37.73647],[-75.5519,37.74812],[-75.52682,37.78871],[-75.48927,37.83246],[-75.45356,37.86364],[-75.4315,37.87523],[-75.40644,37.89944],[-75.38148,37.89297],[-75.34616,37.89135],[-75.34992,37.87832],[-75.37019,37.86633],[-75.39457,37.87218],[-75.3816,37.85123],[-75.35864,37.865],[-75.34645,37.8783],[-75.29827,37.95676],[-75.24247,38.02703],[-75.39698,38.01344],[-75.62445,37.9942],[-75.64823,37.96677]]],[[[-76.04653,37.95359],[-76.02512,37.94374],[-75.9939,37.95349],[-76.04653,37.95359]]],[[[-76.67159,37.14206],[-76.68029,37.12629],[-76.67517,37.10864],[-76.68419,37.10389],[-76.70118,37.0662],[-76.71177,37.05538],[-76.83758,37.00224],[-77.0021,36.92075],[-76.98888,36.91445],[-76.97007,36.88847],[-76.9809,36.88402],[-77.00961,36.8856],[-77.01663,36.86653],[-77.0117,36.85565],[-76.98611,36.86009],[-76.98356,36.8464],[-76.97144,36.83312],[-76.94558,36.83133],[-76.95065,36.81154],[-76.96365,36.80373],[-76.97077,36.78513],[-77.0115,36.79512],[-77.02049,36.77446],[-77.04592,36.77432],[-77.06239,36.74922],[-77.06379,36.73381],[-77.08112,36.72287],[-77.07594,36.69406],[-77.08274,36.6724],[-77.07679,36.6594],[-77.08269,36.63501],[-77.05289,36.64142],[-77.04574,36.61652],[-77.07854,36.61257],[-77.09935,36.60223],[-77.06653,36.56997],[-77.05801,36.55719],[-77.07189,36.54588],[-77.09839,36.55817],[-77.10303,36.54445],[-76.91605,36.54382],[-76.9159,36.55209],[-76.80708,36.55061],[-76.5755,36.55074],[-76.19278,36.55047],[-75.86765,36.55041],[-75.87414,36.58385],[-75.89095,36.63075],[-75.92175,36.69205],[-75.94955,36.76115],[-75.96545,36.81245],[-75.97215,36.84227],[-75.99625,36.92205],[-76.00755,36.92905],[-76.04159,36.92988],[-76.05815,36.91695],[-76.09048,36.90781],[-76.13956,36.92305],[-76.17709,36.93007],[-76.19253,36.91804],[-76.18201,36.90667],[-76.19846,36.88664],[-76.19326,36.86525],[-76.17691,36.85697],[-76.19474,36.82997],[-76.22806,36.83287],[-76.20645,36.77705],[-76.22527,36.76287],[-76.24216,36.75999],[-76.25343,36.74256],[-76.29109,36.75766],[-76.34485,36.75852],[-76.34432,36.77007],[-76.38677,36.77883],[-76.39968,36.78739],[-76.42235,36.78752],[-76.4382,36.77882],[-76.44516,36.78743],[-76.46178,36.78257],[-76.45747,36.81484],[-76.44107,36.84255],[-76.40414,36.88504],[-76.40691,36.89751],[-76.4416,36.90612],[-76.45469,36.88408],[-76.49156,36.8811],[-76.48016,36.91427],[-76.49976,36.92938],[-76.48553,36.93858],[-76.48646,36.95654],[-76.51336,36.96806],[-76.52485,36.98383],[-76.54065,36.98825],[-76.56292,37.0038],[-76.58649,37.02874],[-76.61212,37.0356],[-76.64601,37.03623],[-76.65913,37.04243],[-76.66994,37.05989],[-76.65689,37.10984],[-76.67159,37.14206]]]]},"properties":{"CD119FP":"02","GEOID":"5102","NAMELSAD":"Congressional District 2"}}
]}